<?xml version="1.0" encoding="UTF-8"?>
<kml xmlns="http://www.opengis.net/kml/2.2" xmlns:gx="http://www.google.com/kml/ext/2.2" xmlns:kml="http://www.opengis.net/kml/2.2" xmlns:atom="http://www.w3.org/2005/Atom">
<Document>
	<name>puntos_elevacion_bogota.kml</name>
	<StyleMap id="m_ylw-pushpin">
		<Pair>
			<key>normal</key>
			<styleUrl>#s_ylw-pushpin</styleUrl>
		</Pair>
		<Pair>
			<key>highlight</key>
			<styleUrl>#s_ylw-pushpin_hl</styleUrl>
		</Pair>
	</StyleMap>
	<Style id="s_ylw-pushpin">
		<IconStyle>
			<scale>1.1</scale>
			<Icon>
				<href>http://maps.google.com/mapfiles/kml/pushpin/ylw-pushpin.png</href>
			</Icon>
			<hotSpot x="20" y="2" xunits="pixels" yunits="pixels"/>
		</IconStyle>
		<LineStyle>
			<color>ff0000ff</color>
			<width>2</width>
		</LineStyle>
	</Style>
	<Style id="s_ylw-pushpin_hl">
		<IconStyle>
			<scale>1.3</scale>
			<Icon>
				<href>http://maps.google.com/mapfiles/kml/pushpin/ylw-pushpin.png</href>
			</Icon>
			<hotSpot x="20" y="2" xunits="pixels" yunits="pixels"/>
		</IconStyle>
		<LineStyle>
			<color>ff0000ff</color>
			<width>2</width>
		</LineStyle>
	</Style>
	<Placemark>
		<name>Untitled Path</name>
		<styleUrl>#m_ylw-pushpin</styleUrl>
		<LineString>
			<tessellate>1</tessellate>
			<coordinates>
				-74.1939633716797,4.550480061485997,0 -74.19227210827047,4.533172849361597,0 -74.19582104277779,4.523290672476273,0 -74.18561725224144,4.512345975047928,0 -74.1761558564852,4.518882263998293,0 -74.17584061994432,4.519772975400853,0 -74.17441533058954,4.541713156168316,0 -74.16840460095619,4.549424688992562,0 -74.15763282292474,4.548898932347811,0 -74.1547064883453,4.536990037641337,0 -74.15425781433368,4.536758126299302,0 -74.15287076617064,4.526832017068873,0 -74.15225290072668,4.525563963259225,0 -74.15214249899432,4.524615847253067,0 -74.15024085103229,4.516556030437124,0 -74.14949613151055,4.5156225978185,0 -74.14332987764483,4.512676111461125,0 -74.1275703229384,4.514066179382636,0 -74.12738041152623,4.514515800343961,0 -74.12807597977658,4.524290331658939,0 -74.12722769830597,4.53274393698806,0 -74.12472914469937,4.532901640908485,0 -74.11810453523972,4.532650222539501,0 -74.11762701669349,4.532610476074955,0 -74.11659987478694,4.531314579822052,0 -74.11058720336068,4.525064388255794,0 -74.1097988157582,4.523789217141222,0 -74.10948513322538,4.522339123623704,0 -74.10999799514296,4.513804741861374,0 -74.1099696724996,4.513338961943387,0 -74.10034655101778,4.511295281965805,0 -74.09895211676231,4.512034361602987,0 -74.09178749263903,4.517582373357721,0 -74.09179151276066,4.5182573216793,0 -74.09833927932929,4.529462584184692,0 -74.09980816247197,4.541992318737696,0 -74.09816047155972,4.542388436305584,0 -74.09599971540605,4.542451990197724,0 -74.07874542781022,4.535534655333624,0 -74.0787377933577,4.534548027673437,0 -74.07728892578014,4.532888479225265,0 -74.07187607173208,4.524698448778201,0 -74.07121466674832,4.523528747812369,0 -74.06988348598586,4.523077481417521,0 -74.06360883843298,4.521132524042717,0 -74.06339108838439,4.52040896945036,0 -74.06204008258423,4.520147502800458,0 -74.06024236596028,4.519392400073245,0 -74.05705183796759,4.517911295699519,0 -74.05408264930057,4.51713876748578,0 -74.04905393776123,4.516615096347945,0 -74.04837355389836,4.516578215440411,0 -74.04746316786081,4.516497498412032,0 -74.04632308357731,4.516365755479125,0 -74.04019473908174,4.515773666955094,0 -74.03038434650153,4.515933061172716,0 -74.02923065254053,4.515960172768293,0 -74.02667269763,4.51609165956327,0 -74.01385679608681,4.516225076382614,0 -74.01293802742326,4.516144983008499,0 -74.01019197116256,4.51588171323764,0 -73.99666566996717,4.515276809484202,0 -73.99456360398389,4.515173019545592,0 -73.99107024078494,4.514975206929821,0 -73.98874213225494,4.514839382558027,0 -73.97114813738857,4.515254955765313,0 -73.97046546322876,4.515191432260854,0 -73.9695507302434,4.515112835025501,0 -73.96343307427176,4.514718312973897,0 -73.9627653978508,4.514642059792227,0 -73.95581880225154,4.520884552235509,0 -73.95661409771007,4.521867912639025,0 -73.95850206572415,4.523789888331958,0 -73.96487199008986,4.526950149364072,0 -73.96647081095422,4.527310245492102,0 -73.96741939752485,4.52736211225825,0 -73.9699681593931,4.527588004612541,0 -73.97876126743758,4.529162903234632,0 -73.98163961213724,4.529263350079246,0 -73.99190741236207,4.528085564813976,0 -73.9928852706435,4.527870754823703,0 -73.99571051856812,4.527801801543282,0 -73.9978346232941,4.527861515106061,0 -74.00965290690949,4.529534521026571,0 -74.01079660748856,4.529710660397663,0 -74.01996130431344,4.530206054370878,0 -74.03569733934805,4.530001320331238,0 -74.04079551065271,4.530261844504467,0 -74.04241809025253,4.530401103910512,0 -74.04334471245515,4.530456605494868,0 -74.05265418343866,4.53258504448223,0 -74.0543105159454,4.533138763678427,0 -74.06174228743897,4.53634957593929,0 -74.06264490494884,4.537049904640864,0 -74.07314286749624,4.544303755968304,0 -74.07484152346065,4.545296789177365,0 -74.078560028231,4.548239539406105,0 -74.08500330537981,4.553948626139374,0 -74.08527116477433,4.555034519777956,0 -74.08583301490563,4.556777907746787,0 -74.08659473764162,4.557917759466422,0 -74.08897082838132,4.563579986316057,0 -74.08950070513936,4.565237391866722,0 -74.08953891077255,4.566868698327431,0 -74.08981148634311,4.567974228184392,0 -74.09114901193344,4.571659960676252,0 -74.09120633183522,4.575177037166044,0 -74.09176322502977,4.577967851003888,0 -74.0918023637244,4.57990787584164,0 -74.09212318113205,4.58380494951455,0 -74.08448218044985,4.583385398733591,0 -74.08397400978434,4.583341777254851,0 -74.0796364020388,4.577678753817606,0 -74.07886919448902,4.576752844617354,0 -74.07761879292897,4.575030563664405,0 -74.07485131570645,4.572551633371782,0 -74.06840488054138,4.565957813060574,0 -74.06670240838076,4.563664016902247,0 -74.06596578365887,4.56247592122058,0 -74.06476552224638,4.561654755968418,0 -74.06400730637607,4.560616346480104,0 -74.05537059362908,4.554104385714946,0 -74.05466225609396,4.553542256102155,0 -74.04360183172396,4.545510975328336,0 -74.04289750287658,4.545129504912548,0 -74.04149342889349,4.544369057568031,0 -74.0396222276663,4.543578565592712,0 -74.02652750166646,4.540579608542211,0 -74.02415322808019,4.540526445498816,0 -74.02295591960539,4.54056208823915,0 -74.00676891111179,4.539542139645501,0 -74.00583711992935,4.539418720139493,0 -74.00423278499372,4.538963329168629,0 -74.00331456525066,4.538808666403381,0 -74.00104273535524,4.538373357065833,0 -73.98414489278392,4.535654670813449,0 -73.98338292610798,4.535716606463329,0 -73.97981313632587,4.536177389318225,0 -73.97880749534673,4.53658784660731,0 -73.97732096105669,4.536795245529793,0 -73.97475534342581,4.537482115579903,0 -73.97106864643078,4.53895865985509,0 -73.9683754869979,4.540047290096623,0 -73.96617102425741,4.541707637474692,0 -73.96580142472588,4.548930810033903,0 -73.96987669813272,4.554543624438915,0 -73.97076012648955,4.555143111423002,0 -73.97414259735642,4.55510329030364,0 -73.98094619457032,4.556220794790615,0 -73.98288570336241,4.556335645209168,0 -73.99683457793331,4.557640401023566,0 -73.9987588643983,4.557805300105138,0 -74.00333812802391,4.558181868679164,0 -74.02205273874115,4.558901734123961,0 -74.02569028534199,4.558951853964726,0 -74.02809374488177,4.559251936433265,0 -74.04761698009658,4.563447619849522,0 -74.05340356352575,4.565323863692661,0 -74.06204548394672,4.569765094024193,0 -74.07068185033249,4.586990157848495,0 -74.07147535053707,4.588078129933977,0 -74.07275560662943,4.589377761174294,0 -74.07843388683072,4.595204526393229,0 -74.07868958345766,4.596367471575218,0 -74.08543879657481,4.603516360172444,0 -74.08573455971207,4.607657443993663,0 -74.08575226325665,4.609733945098108,0 -74.08576932449014,4.61181821293719,0 -74.08581826812961,4.61753930888608,0 -74.08582093701021,4.617843049659167,0 -74.08425524494841,4.621081336491582,0 -74.08213501277136,4.622151444316641,0 -74.07894251491902,4.624070827257001,0 -74.07787659413296,4.623997575593433,0 -74.07547814319136,4.623518558283105,0 -74.06645663328514,4.618711570312462,0 -74.06487426217905,4.617615750825341,0 -74.06434995562654,4.616926604653817,0 -74.0616943578208,4.614837155094665,0 -74.06037497044115,4.613984062674502,0 -74.04881347683798,4.60458539962353,0 -74.04858550267147,4.604132588070605,0 -74.04577753012654,4.602423763347725,0 -74.03842874114763,4.594177443888428,0 -74.03698498256712,4.592224823477045,0 -74.02897856205411,4.586306611569605,0 -74.02676211596648,4.58556129426844,0 -74.01855848478164,4.580818975216562,0 -74.0163830137478,4.579826215455075,0 -74.01467339271613,4.579231703360901,0 -73.9894176266036,4.571874652910804,0 -73.98845156405619,4.571565705298354,0 -73.98547102294465,4.571220956870535,0 -73.98470152987986,4.571242094746679,0 -73.97834553397509,4.570849395125366,0 -73.97736466603222,4.570754435817965,0 -73.97276566040846,4.571280596018565,0 -73.96784938815955,4.571304166123803,0 -73.96458904122045,4.571592132332653,0 -73.959483761984,4.57730444750082,0 -73.95921365733849,4.579365380603636,0 -73.95926505027151,4.580240326531113,0 -73.95886749563324,4.58255011239186,0 -73.95981938427785,4.592132814396166,0 -73.96071889719558,4.593641848688475,0 -73.96127758047905,4.596652836971967,0 -73.96549717082952,4.599439770392988,0 -73.97170233711499,4.601972530918197,0 -73.97324042612013,4.602290352187507,0 -73.97874524248525,4.602404289587517,0 -73.98120432796351,4.601597838129796,0 -73.98310100290678,4.601063026865093,0 -73.98439180989575,4.601129744145871,0 -73.9872685331196,4.600975227906861,0 -74.00183413408682,4.602278933573291,0 -74.00361343545065,4.602502845984985,0 -74.01103436320311,4.603283988365483,0 -74.01229133210099,4.603580974011012,0 -74.02469892693293,4.604264008625186,0 -74.02574250316741,4.604146303616552,0 -74.03435199679845,4.607013760146267,0 -74.03532973391658,4.608190917559591,0 -74.03887344825306,4.610260001501155,0 -74.04118380232705,4.611331730793442,0 -74.04192216399278,4.612276211671265,0 -74.04295192326605,4.612704085144274,0 -74.05121556690159,4.623886904435295,0 -74.05171831345335,4.624456887118444,0 -74.05651314009059,4.628780850038359,0 -74.05974033847089,4.631498427176021,0 -74.07514264982586,4.639567602165762,0 -74.08058909659113,4.64867028280376,0 -74.06762360927026,4.651686691563663,0 -74.06679514708834,4.651621313918294,0 -74.06348212213874,4.65135983698417,0 -74.05358528433065,4.648699144047592,0 -74.05058909070263,4.646291893401425,0 -74.04278222102811,4.641411417288656,0 -74.04199679379521,4.640637076081928,0 -74.04016157374419,4.638912977400716,0 -74.03914445560957,4.63727180893364,0 -74.03704733019202,4.635553294886646,0 -74.02610417839591,4.630190019301416,0 -74.02294833582356,4.629367015381065,0 -74.01850648220058,4.627881597568416,0 -74.01664146928837,4.627778264675802,0 -74.00421805537884,4.626039628187989,0 -73.99832597783151,4.624087685603269,0 -73.99676791145063,4.623843885904541,0 -73.99472655358562,4.623211860012649,0 -73.98439113533162,4.620639578412591,0 -73.96673652713521,4.615524403919708,0 -73.96204191021636,4.627041070779132,0 -73.96178499665339,4.628872423117005,0 -73.9632423917315,4.646772723866614,0 -73.96355489893402,4.648651096542363,0 -73.9686416365809,4.659212642779389,0 -73.97026118078963,4.659485899664014,0 -73.99245544307544,4.661264543521849,0 -73.99301336903856,4.661297388422081,0 -73.99455423435212,4.66013635361693,0 -74.01073575143332,4.653718240856988,0 -74.01815722470721,4.647052609979458,0 -74.03643422604388,4.653269613441838,0 -74.04665504831986,4.664433331898453,0 -74.04905255509632,4.668597553485752,0 -74.040490939124,4.676549710589875,0 -74.03850100632728,4.675823300442218,0 -74.03567191241002,4.675035347818838,0 -74.02582646571724,4.673281121965291,0 -74.02413377865749,4.673215699840392,0 -74.01990880147784,4.672932139020234,0 -74.01793646362302,4.672800680929896,0 -74.00508608450036,4.671299291978801,0 -73.99603113902677,4.675915673406755,0 -73.99461737851708,4.67579018964434,0 -73.99318375254954,4.675938443090294,0 -73.98392220874732,4.675730017657204,0 -73.98101517209604,4.676235594071605,0 -73.97956383603331,4.676292694858805,0 -73.96753861404871,4.680087044201166,0 -73.96079629310114,4.692947192102798,0 -73.96055833191218,4.694739631871187,0 -73.96218252315818,4.698269429736476,0 -73.96686651171365,4.705160661292159,0 -73.97146311016596,4.70393789977959,0 -73.97837078269725,4.702767600645905,0 -73.98042061452594,4.70273719211957,0 -73.98566600980259,4.700713621037896,0 -73.99828816987302,4.694585019212911,0 -73.99951575523191,4.693927610336541,0 -74.0016812945927,4.692821085056276,0 -74.00499427209625,4.691744914236169,0 -74.01204182997398,4.690653086327591,0 
			</coordinates>
		</LineString>
		<atom:link rel="app" href="https://www.google.com/earth/about/versions/#earth-pro" title="Google Earth Pro 7.3.7.1155"></atom:link>
	</Placemark>
</Document>
</kml>
